*******************************************************************************
Ephemeris / WWW_USER Fri Mar  7 10:19:57 2025 Pasadena, USA      / Horizons    
*******************************************************************************
Target body name: (2018 PK21)                     {source: JPL#33}
Center body name: Earth (399)                     {source: DE441}
Center-site name: Mauna Kea
*******************************************************************************
Start time      : A.D. 2018-Aug-27 04:51:00.0000 UT      
Stop  time      : A.D. 2018-Aug-27 15:56:00.0000 UT      
Step-size       : 1 minutes
*******************************************************************************
Target pole/equ : undefined
Target radii    : undefined                                                    
Center geodetic : 204.5278, 19.8260847, 4.21024   {E-lon(deg),Lat(deg),Alt(km)}
Center cylindric: 204.5278, 6006.35451, 2151.0229 {E-lon(deg),Dxy(km),Dz(km)}
Center pole/equ : ITRF93                          {East-longitude positive}
Center radii    : 6378.137, 6378.137, 6356.752 km {Equator_a, b, pole_c}       
Target primary  : Sun
Vis. interferer : MOON (R_eq= 1737.400) km        {source: DE441}
Rel. light bend : Sun                             {source: DE441}
Rel. lght bnd GM: 1.3271E+11 km^3/s^2                                          
Small-body perts: Yes                             {source: SB441-N16}
Atmos refraction: NO (AIRLESS)
RA format       : HMS
Time format     : CAL 
Calendar mode   : Mixed Julian/Gregorian
RTS-only print  : NO       
EOP file        : eop.250306.p250602                                           
EOP coverage    : DATA-BASED 1962-JAN-20 TO 2025-MAR-06. PREDICTS-> 2025-JUN-01
Units conversion: 1 au= 149597870.700 km, c= 299792.458 km/s, 1 day= 86400.0 s 
Table cut-offs 1: Elevation (-90.0deg=NO ),Airmass (>38.000=NO), Daylight (YES)
Table cut-offs 2: Solar elongation (  0.0,180.0=NO ),Local Hour Angle( 0.0=NO )
Table cut-offs 3: RA/DEC angular rate (     0.0=NO )                           
*******************************************************************************
Initial IAU76/J2000 heliocentric ecliptic osculating elements (au, days, deg.):
  EPOCH=  2458678.5 ! 2019-Jul-14.00 (TDB)         Residual RMS= .18538        
   EC= .08059571149071894  QR= .9080173735553244   TP= 2458556.3979336754      
   OM= 305.3714803879685   W=  224.0867446587677   IN= 1.196977749955446       
  Equivalent ICRF heliocentric cartesian coordinates (au, au/d):
   X= 5.084898226316541E-01  Y=-8.259633024476691E-01  Z=-3.605371187528673E-01
  VX= 1.486595997640644E-02 VY= 6.429710771461657E-03 VZ= 3.158008025433540E-03
Asteroid physical parameters (km, seconds, rotational period in hours):        
   GM= n.a.                RAD= n.a.               ROTPER= n.a.                
   H= 25.88                G= .150                 B-V= n.a.                   
                           ALBEDO= n.a.            STYP= n.a.                  
*******************************************************************************
 Date__(UT)__HR:MN     R.A._________(ICRF)_________DEC
******************************************************
$$SOE
 2018-Aug-27 11:00  m  21 14 36.417952 -04 43 15.30629
 2018-Aug-27 11:01  m  21 14 36.246736 -04 43 15.63461
 2018-Aug-27 11:02  m  21 14 36.075613 -04 43 15.96273
 2018-Aug-27 11:03  m  21 14 35.904583 -04 43 16.29063
 2018-Aug-27 11:04  m  21 14 35.733648 -04 43 16.61832
 2018-Aug-27 11:05  m  21 14 35.562808 -04 43 16.94580
 2018-Aug-27 11:06  m  21 14 35.392063 -04 43 17.27306
 2018-Aug-27 11:07  m  21 14 35.221416 -04 43 17.60012
 2018-Aug-27 11:08  m  21 14 35.050866 -04 43 17.92696
 2018-Aug-27 11:09  m  21 14 34.880414 -04 43 18.25359
 2018-Aug-27 11:10  m  21 14 34.710061 -04 43 18.58002
 2018-Aug-27 11:11  m  21 14 34.539807 -04 43 18.90623
 2018-Aug-27 11:12  m  21 14 34.369654 -04 43 19.23224
 2018-Aug-27 11:13  m  21 14 34.199602 -04 43 19.55804
 2018-Aug-27 11:14  m  21 14 34.029652 -04 43 19.88363
 2018-Aug-27 11:15  m  21 14 33.859805 -04 43 20.20901
 2018-Aug-27 11:16  m  21 14 33.690061 -04 43 20.53419
 2018-Aug-27 11:17  m  21 14 33.520420 -04 43 20.85916
 2018-Aug-27 11:18  m  21 14 33.350885 -04 43 21.18392
 2018-Aug-27 11:19  m  21 14 33.181455 -04 43 21.50848
 2018-Aug-27 11:20  m  21 14 33.012132 -04 43 21.83284
 2018-Aug-27 11:21  m  21 14 32.842916 -04 43 22.15699
 2018-Aug-27 11:22  m  21 14 32.673807 -04 43 22.48094
 2018-Aug-27 11:23  m  21 14 32.504806 -04 43 22.80469
 2018-Aug-27 11:24  m  21 14 32.335915 -04 43 23.12823
 2018-Aug-27 11:25  m  21 14 32.167134 -04 43 23.45157
 2018-Aug-27 11:26  m  21 14 31.998463 -04 43 23.77472
 2018-Aug-27 11:27  m  21 14 31.829904 -04 43 24.09766
 2018-Aug-27 11:28  m  21 14 31.661456 -04 43 24.42040
 2018-Aug-27 11:29  m  21 14 31.493122 -04 43 24.74294
 2018-Aug-27 11:30  m  21 14 31.324900 -04 43 25.06528
 2018-Aug-27 11:31  m  21 14 31.156793 -04 43 25.38743
 2018-Aug-27 11:32  m  21 14 30.988801 -04 43 25.70937
 2018-Aug-27 11:33  m  21 14 30.820924 -04 43 26.03112
 2018-Aug-27 11:34  m  21 14 30.653163 -04 43 26.35268
 2018-Aug-27 11:35  m  21 14 30.485520 -04 43 26.67403
 2018-Aug-27 11:36  m  21 14 30.317993 -04 43 26.99520
 2018-Aug-27 11:37  m  21 14 30.150586 -04 43 27.31616
 2018-Aug-27 11:38  m  21 14 29.983297 -04 43 27.63694
 2018-Aug-27 11:39  m  21 14 29.816128 -04 43 27.95752
 2018-Aug-27 11:40  m  21 14 29.649079 -04 43 28.27791
 2018-Aug-27 11:41  m  21 14 29.482151 -04 43 28.59810
 2018-Aug-27 11:42  m  21 14 29.315346 -04 43 28.91811
 2018-Aug-27 11:43  m  21 14 29.148662 -04 43 29.23792
 2018-Aug-27 11:44  m  21 14 28.982102 -04 43 29.55754
 2018-Aug-27 11:45  m  21 14 28.815665 -04 43 29.87698
 2018-Aug-27 11:46  m  21 14 28.649353 -04 43 30.19622
 2018-Aug-27 11:47  m  21 14 28.483165 -04 43 30.51528
 2018-Aug-27 11:48  m  21 14 28.317104 -04 43 30.83414
 2018-Aug-27 11:49  m  21 14 28.151169 -04 43 31.15282
 2018-Aug-27 11:50  m  21 14 27.985361 -04 43 31.47132
 2018-Aug-27 11:51  m  21 14 27.819681 -04 43 31.78963
 2018-Aug-27 11:52  m  21 14 27.654129 -04 43 32.10775
 2018-Aug-27 11:53  m  21 14 27.488707 -04 43 32.42569
 2018-Aug-27 11:54  m  21 14 27.323414 -04 43 32.74345
 2018-Aug-27 11:55  m  21 14 27.158251 -04 43 33.06102
 2018-Aug-27 11:56  m  21 14 26.993220 -04 43 33.37841
 2018-Aug-27 11:57  m  21 14 26.828320 -04 43 33.69562
 2018-Aug-27 11:58  m  21 14 26.663552 -04 43 34.01264
 2018-Aug-27 11:59  m  21 14 26.498918 -04 43 34.32949
 2018-Aug-27 12:00  m  21 14 26.334416 -04 43 34.64616
 2018-Aug-27 12:01  m  21 14 26.170050 -04 43 34.96265
 2018-Aug-27 12:02  m  21 14 26.005818 -04 43 35.27896
 2018-Aug-27 12:03  m  21 14 25.841721 -04 43 35.59509
 2018-Aug-27 12:04  m  21 14 25.677761 -04 43 35.91104
 2018-Aug-27 12:05  m  21 14 25.513937 -04 43 36.22682
 2018-Aug-27 12:06  m  21 14 25.350250 -04 43 36.54242
 2018-Aug-27 12:07  m  21 14 25.186702 -04 43 36.85785
 2018-Aug-27 12:08  m  21 14 25.023292 -04 43 37.17311
 2018-Aug-27 12:09  m  21 14 24.860022 -04 43 37.48819
 2018-Aug-27 12:10  m  21 14 24.696891 -04 43 37.80310
 2018-Aug-27 12:11  m  21 14 24.533900 -04 43 38.11783
 2018-Aug-27 12:12  m  21 14 24.371051 -04 43 38.43240
 2018-Aug-27 12:13  m  21 14 24.208343 -04 43 38.74679
 2018-Aug-27 12:14  m  21 14 24.045778 -04 43 39.06102
 2018-Aug-27 12:15  m  21 14 23.883355 -04 43 39.37507
 2018-Aug-27 12:16  m  21 14 23.721076 -04 43 39.68896
 2018-Aug-27 12:17  m  21 14 23.558940 -04 43 40.00268
 2018-Aug-27 12:18  m  21 14 23.396950 -04 43 40.31623
 2018-Aug-27 12:19  m  21 14 23.235104 -04 43 40.62962
 2018-Aug-27 12:20  m  21 14 23.073405 -04 43 40.94284
 2018-Aug-27 12:21  m  21 14 22.911851 -04 43 41.25590
 2018-Aug-27 12:22  m  21 14 22.750445 -04 43 41.56879
 2018-Aug-27 12:23  m  21 14 22.589186 -04 43 41.88153
 2018-Aug-27 12:24  m  21 14 22.428075 -04 43 42.19409
 2018-Aug-27 12:25  m  21 14 22.267113 -04 43 42.50650
 2018-Aug-27 12:26  m  21 14 22.106301 -04 43 42.81875
 2018-Aug-27 12:27  m  21 14 21.945637 -04 43 43.13083
 2018-Aug-27 12:28  m  21 14 21.785125 -04 43 43.44276
 2018-Aug-27 12:29  m  21 14 21.624763 -04 43 43.75453
 2018-Aug-27 12:30  m  21 14 21.464553 -04 43 44.06614
 2018-Aug-27 12:31  m  21 14 21.304495 -04 43 44.37759
 2018-Aug-27 12:32  m  21 14 21.144589 -04 43 44.68889
 2018-Aug-27 12:33  m  21 14 20.984836 -04 43 45.00003
 2018-Aug-27 12:34  m  21 14 20.825237 -04 43 45.31102
 2018-Aug-27 12:35  m  21 14 20.665793 -04 43 45.62186
 2018-Aug-27 12:36  m  21 14 20.506503 -04 43 45.93254
 2018-Aug-27 12:37  m  21 14 20.347368 -04 43 46.24307
 2018-Aug-27 12:38  m  21 14 20.188390 -04 43 46.55345
 2018-Aug-27 12:39  m  21 14 20.029567 -04 43 46.86367
 2018-Aug-27 12:40  m  21 14 19.870902 -04 43 47.17375
 2018-Aug-27 12:41  m  21 14 19.712394 -04 43 47.48368
 2018-Aug-27 12:42  m  21 14 19.554044 -04 43 47.79346
 2018-Aug-27 12:43  m  21 14 19.395852 -04 43 48.10310
 2018-Aug-27 12:44  m  21 14 19.237819 -04 43 48.41259
 2018-Aug-27 12:45  m  21 14 19.079946 -04 43 48.72193
 2018-Aug-27 12:46  m  21 14 18.922233 -04 43 49.03113
 2018-Aug-27 12:47  m  21 14 18.764680 -04 43 49.34018
 2018-Aug-27 12:48  m  21 14 18.607288 -04 43 49.64909
 2018-Aug-27 12:49  m  21 14 18.450058 -04 43 49.95786
 2018-Aug-27 12:50  m  21 14 18.292990 -04 43 50.26649
 2018-Aug-27 12:51  m  21 14 18.136084 -04 43 50.57497
 2018-Aug-27 12:52  m  21 14 17.979342 -04 43 50.88332
 2018-Aug-27 12:53  m  21 14 17.822763 -04 43 51.19153
 2018-Aug-27 12:54  m  21 14 17.666347 -04 43 51.49960
 2018-Aug-27 12:55  m  21 14 17.510097 -04 43 51.80753
 2018-Aug-27 12:56  m  21 14 17.354011 -04 43 52.11533
 2018-Aug-27 12:57  m  21 14 17.198090 -04 43 52.42299
 2018-Aug-27 12:58  m  21 14 17.042336 -04 43 52.73052
 2018-Aug-27 12:59  m  21 14 16.886748 -04 43 53.03791
 2018-Aug-27 13:00  m  21 14 16.731326 -04 43 53.34517
 2018-Aug-27 13:01  m  21 14 16.576072 -04 43 53.65230
 2018-Aug-27 13:02  m  21 14 16.420986 -04 43 53.95929
